[{"OBJECT_NAME":"PACE","OBJECT_ID":"2024-025A","EPOCH":"2026-03-09T17:12:21.766176","MEAN_MOTION":14.65475036,"ECCENTRICITY":0.00016743,"INCLINATION":98.09,"RA_OF_ASC_NODE":1.5412,"ARG_OF_PERICENTER":171.2406,"MEAN_ANOMALY":188.8827,"EPHEMERIS_TYPE":0,"CLASSIFICATION_TYPE":"U","NORAD_CAT_ID":58928,"ELEMENT_SET_NO":999,"REV_AT_EPOCH":11136,"BSTAR":0.00014666329,"MEAN_MOTION_DOT":7.47e-6,"MEAN_MOTION_DDOT":0},{"OBJECT_NAME":"NOAA 17 DEB","OBJECT_ID":"2002-032BB","EPOCH":"2026-03-09T23:12:28.814688","MEAN_MOTION":14.61740146,"ECCENTRICITY":0.00177958,"INCLINATION":98.9647,"RA_OF_ASC_NODE":129.0088,"ARG_OF_PERICENTER":103.1292,"MEAN_ANOMALY":257.1894,"EPHEMERIS_TYPE":0,"CLASSIFICATION_TYPE":"U","NORAD_CAT_ID":48718,"ELEMENT_SET_NO":999,"REV_AT_EPOCH":26169,"BSTAR":0.0023992984,"MEAN_MOTION_DOT":0.00011952,"MEAN_MOTION_DDOT":0}]
